{
  "type": "FeatureCollection",
  "features": [
    {
      "type": "Feature",
      "properties": {
        "norad_id": 44709,
        "name": "BEIDOU-3 IGSO-3 (C40)",
        "group": "gnss",
        "lat": 48.19730496461223,
        "lon": -25.912711684353102,
        "alt_km": 35898.524969925216,
        "timestamp": "2025-12-02T10:50:47.516538+00:00",
        "meta_object_name": "BEIDOU-3 IGSO-3 (C40)",
        "meta_object_id": "2019-073A",
        "meta_epoch": "2025-11-20T07:11:22.740000",
        "meta_mean_motion": 1.00250097,
        "meta_eccentricity": 0.0044538,
        "meta_inclination": 55.163,
        "meta_ra_of_asc_node": 283.159,
        "meta_arg_of_pericenter": 191.5856,
        "meta_mean_anomaly": 168.2409,
        "meta_ephemeris_type": 0,
        "meta_classification_type": "U",
        "meta_norad_cat_id": 44709,
        "meta_element_set_no": 999,
        "meta_rev_at_epoch": 2236,
        "meta_bstar": 0,
        "meta_mean_motion_dot": -2.06e-06,
        "meta_mean_motion_ddot": 0,
        "tle_line1": "1 44709U 19073A   25324.29956875 -.00000206  00000+0  00000+0 0  9998",
        "tle_line2": "2 44709  55.1630 283.1590 0044538 191.5856 168.2409  1.00250097 22360"
      },
      "geometry": {
        "type": "Point",
        "coordinates": [
          -25.912711684353102,
          48.19730496461223
        ]
      }
    },
    {
      "type": "Feature",
      "properties": {
        "norad_id": 44793,
        "name": "BEIDOU-3 M22 (C44)",
        "group": "gnss",
        "lat": -49.79283859356672,
        "lon": -112.14901388078864,
        "alt_km": 21534.32538247513,
        "timestamp": "2025-12-02T10:50:47.516560+00:00",
        "meta_object_name": "BEIDOU-3 M22 (C44)",
        "meta_object_id": "2019-078A",
        "meta_epoch": "2025-12-02T00:28:58.554624",
        "meta_mean_motion": 1.86231817,
        "meta_eccentricity": 0.0005633,
        "meta_inclination": 54.1183,
        "meta_ra_of_asc_node": 306.7625,
        "meta_arg_of_pericenter": 22.616,
        "meta_mean_anomaly": 337.398,
        "meta_ephemeris_type": 0,
        "meta_classification_type": "U",
        "meta_norad_cat_id": 44793,
        "meta_element_set_no": 999,
        "meta_rev_at_epoch": 4097,
        "meta_bstar": 0,
        "meta_mean_motion_dot": -6.1e-07,
        "meta_mean_motion_ddot": 0,
        "tle_line1": "1 44793U 19078A   25336.02012216 -.00000061  00000+0  00000+0 0  9991",
        "tle_line2": "2 44793  54.1183 306.7625 0005633  22.6160 337.3980  1.86231817 40974"
      },
      "geometry": {
        "type": "Point",
        "coordinates": [
          -112.14901388078864,
          -49.79283859356672
        ]
      }
    },
    {
      "type": "Feature",
      "properties": {
        "norad_id": 44794,
        "name": "BEIDOU-3 M21 (C43)",
        "group": "gnss",
        "lat": -14.032006417286311,
        "lon": 137.12261822705696,
        "alt_km": 21541.106602513748,
        "timestamp": "2025-12-02T10:50:47.516577+00:00",
        "meta_object_name": "BEIDOU-3 M21 (C43)",
        "meta_object_id": "2019-078B",
        "meta_epoch": "2025-12-01T02:00:26.030304",
        "meta_mean_motion": 1.86227539,
        "meta_eccentricity": 0.00038706,
        "meta_inclination": 54.0922,
        "meta_ra_of_asc_node": 306.7607,
        "meta_arg_of_pericenter": 10.0971,
        "meta_mean_anomaly": 349.9036,
        "meta_ephemeris_type": 0,
        "meta_classification_type": "U",
        "meta_norad_cat_id": 44794,
        "meta_element_set_no": 999,
        "meta_rev_at_epoch": 4096,
        "meta_bstar": 0,
        "meta_mean_motion_dot": -5.7e-07,
        "meta_mean_motion_ddot": 0,
        "tle_line1": "1 44794U 19078B   25335.08363461 -.00000057  00000+0  00000+0 0  9993",
        "tle_line2": "2 44794  54.0922 306.7607 0003870  10.0971 349.9036  1.86227539 40963"
      },
      "geometry": {
        "type": "Point",
        "coordinates": [
          137.12261822705696,
          -14.032006417286311
        ]
      }
    },
    {
      "type": "Feature",
      "properties": {
        "norad_id": 44850,
        "name": "COSMOS 2544 (759)",
        "group": "gnss",
        "lat": 29.78036613729143,
        "lon": 95.4378190623215,
        "alt_km": 19154.8375866881,
        "timestamp": "2025-12-02T10:50:47.516597+00:00",
        "meta_object_name": "COSMOS 2544 (759)",
        "meta_object_id": "2019-088A",
        "meta_epoch": "2025-12-01T22:32:51.228384",
        "meta_mean_motion": 2.13101823,
        "meta_eccentricity": 0.0013663,
        "meta_inclination": 65.4542,
        "meta_ra_of_asc_node": 80.3197,
        "meta_arg_of_pericenter": 248.783,
        "meta_mean_anomaly": 111.0683,
        "meta_ephemeris_type": 0,
        "meta_classification_type": "U",
        "meta_norad_cat_id": 44850,
        "meta_element_set_no": 999,
        "meta_rev_at_epoch": 4651,
        "meta_bstar": 0,
        "meta_mean_motion_dot": -1.6e-07,
        "meta_mean_motion_ddot": 0,
        "tle_line1": "1 44850U 19088A   25335.93948181 -.00000016  00000+0  00000+0 0  9994",
        "tle_line2": "2 44850  65.4542  80.3197 0013663 248.7830 111.0683  2.13101823 46515"
      },
      "geometry": {
        "type": "Point",
        "coordinates": [
          95.4378190623215,
          29.78036613729143
        ]
      }
    },
    {
      "type": "Feature",
      "properties": {
        "norad_id": 44864,
        "name": "BEIDOU-3 M19 (C41)",
        "group": "gnss",
        "lat": 27.155047045578254,
        "lon": 89.22339193127947,
        "alt_km": 21540.11481657277,
        "timestamp": "2025-12-02T10:50:47.516615+00:00",
        "meta_object_name": "BEIDOU-3 M19 (C41)",
        "meta_object_id": "2019-090A",
        "meta_epoch": "2025-12-01T20:54:26.017344",
        "meta_mean_motion": 1.86231094,
        "meta_eccentricity": 0.0017512,
        "meta_inclination": 56.3837,
        "meta_ra_of_asc_node": 69.3227,
        "meta_arg_of_pericenter": 284.7988,
        "meta_mean_anomaly": 78.8343,
        "meta_ephemeris_type": 0,
        "meta_classification_type": "U",
        "meta_norad_cat_id": 44864,
        "meta_element_set_no": 999,
        "meta_rev_at_epoch": 4056,
        "meta_bstar": 0,
        "meta_mean_motion_dot": -4.4e-07,
        "meta_mean_motion_ddot": 0,
        "tle_line1": "1 44864U 19090A   25335.87113446 -.00000044  00000+0  00000+0 0  9994",
        "tle_line2": "2 44864  56.3837  69.3227 0017512 284.7988  78.8343  1.86231094 40563"
      },
      "geometry": {
        "type": "Point",
        "coordinates": [
          89.22339193127947,
          27.155047045578254
        ]
      }
    },
    {
      "type": "Feature",
      "properties": {
        "norad_id": 44865,
        "name": "BEIDOU-3 M20 (C42)",
        "group": "gnss",
        "lat": 44.5242440384946,
        "lon": -151.45373361976326,
        "alt_km": 21563.28639471911,
        "timestamp": "2025-12-02T10:50:47.516632+00:00",
        "meta_object_name": "BEIDOU-3 M20 (C42)",
        "meta_object_id": "2019-090B",
        "meta_epoch": "2025-12-01T04:44:21.164352",
        "meta_mean_motion": 1.86231112,
        "meta_eccentricity": 0.0014612,
        "meta_inclination": 56.3845,
        "meta_ra_of_asc_node": 69.3793,
        "meta_arg_of_pericenter": 297.5654,
        "meta_mean_anomaly": 64.0235,
        "meta_ephemeris_type": 0,
        "meta_classification_type": "U",
        "meta_norad_cat_id": 44865,
        "meta_element_set_no": 999,
        "meta_rev_at_epoch": 4053,
        "meta_bstar": 0,
        "meta_mean_motion_dot": -3.9e-07,
        "meta_mean_motion_ddot": 0,
        "tle_line1": "1 44865U 19090B   25335.19746718 -.00000039  00000+0  00000+0 0  9998",
        "tle_line2": "2 44865  56.3845  69.3793 0014612 297.5654  64.0235  1.86231112 40536"
      },
      "geometry": {
        "type": "Point",
        "coordinates": [
          -151.45373361976326,
          44.5242440384946
        ]
      }
    },
    {
      "type": "Feature",
      "properties": {
        "norad_id": 45344,
        "name": "BEIDOU-3 G2 (C60)",
        "group": "gnss",
        "lat": -2.9808641776091735,
        "lon": -45.70443528612259,
        "alt_km": 35767.98770151457,
        "timestamp": "2025-12-02T10:50:47.516650+00:00",
        "meta_object_name": "BEIDOU-3 G2 (C60)",
        "meta_object_id": "2020-017A",
        "meta_epoch": "2025-12-02T03:53:29.384160",
        "meta_mean_motion": 1.00270477,
        "meta_eccentricity": 0.0004521,
        "meta_inclination": 2.98,
        "meta_ra_of_asc_node": 43.5362,
        "meta_arg_of_pericenter": 263.9121,
        "meta_mean_anomaly": 262.2537,
        "meta_ephemeris_type": 0,
        "meta_classification_type": "U",
        "meta_norad_cat_id": 45344,
        "meta_element_set_no": 999,
        "meta_rev_at_epoch": 2128,
        "meta_bstar": 0,
        "meta_mean_motion_dot": -1.22e-06,
        "meta_mean_motion_ddot": 0,
        "tle_line1": "1 45344U 20017A   25336.16214565 -.00000122  00000+0  00000+0 0  9993",
        "tle_line2": "2 45344   2.9800  43.5362 0004521 263.9121 262.2537  1.00270477 21288"
      },
      "geometry": {
        "type": "Point",
        "coordinates": [
          -45.70443528612259,
          -2.9808641776091735
        ]
      }
    }
  ]
}